[{"OBJECT_NAME":"STARLINK-3323","OBJECT_ID":"2022-001B","EPOCH":"2026-03-09T18:07:26.813280","MEAN_MOTION":15.08842876,"ECCENTRICITY":0.00013146,"INCLINATION":53.2149,"RA_OF_ASC_NODE":158.8293,"ARG_OF_PERICENTER":101.3232,"MEAN_ANOMALY":258.7908,"EPHEMERIS_TYPE":0,"CLASSIFICATION_TYPE":"U","NORAD_CAT_ID":50804,"ELEMENT_SET_NO":999,"REV_AT_EPOCH":23055,"BSTAR":0.00059139469,"MEAN_MOTION_DOT":9.137e-5,"MEAN_MOTION_DDOT":0},{"OBJECT_NAME":"KUIPER-00148","OBJECT_ID":"2025-217H","EPOCH":"2026-03-09T06:36:19.446048","MEAN_MOTION":15.09536529,"ECCENTRICITY":0.00081087,"INCLINATION":51.8794,"RA_OF_ASC_NODE":26.5769,"ARG_OF_PERICENTER":351.8096,"MEAN_ANOMALY":8.2745,"EPHEMERIS_TYPE":0,"CLASSIFICATION_TYPE":"U","NORAD_CAT_ID":65769,"ELEMENT_SET_NO":999,"REV_AT_EPOCH":2507,"BSTAR":0.00098730243,"MEAN_MOTION_DOT":0.00015783,"MEAN_MOTION_DDOT":0}]
